{"type":"FeatureCollection","features":[{"type":"Feature","properties":{"name":"Admiralty","name_zh":"海军部","name_ta":"அட்மிரல்ட்டி","codes":["NS10"]},"geometry":{"type":"Point","coordinates":[103.800959,1.440637]}},{"type":"Feature","properties":{"name":"Aljunied","name_zh":"阿裕尼","name_ta":"அல்ஜூனிட்","codes":["EW9"]},"geometry":{"type":"Point","coordinates":[103.882665,1.316259]}},{"type":"Feature","properties":{"name":"Ang Mo Kio","name_zh":"宏茂桥","name_ta":"அங் மோ கியோ","codes":["NS16"]},"geometry":{"type":"Point","coordinates":[103.84954,1.370053]}},{"type":"Feature","properties":{"name":"Bakau","name_zh":"码高","name_ta":"பக்காவ்","codes":["SE3"]},"geometry":{"type":"Point","coordinates":[103.905458,1.388029]}},{"type":"Feature","properties":{"name":"Bangkit","name_zh":"万吉","name_ta":"பங்கிட்","codes":["BP9"]},"geometry":{"type":"Point","coordinates":[103.772644,1.380055]}},{"type":"Feature","properties":{"name":"Bartley","name_zh":"巴特礼","name_ta":"பார்ட்லி","codes":["CC12"]},"geometry":{"type":"Point","coordinates":[103.880449,1.342438]}},{"type":"Feature","properties":{"name":"Bayfront","name_zh":"海湾舫","name_ta":"பேஃபிரண்ட்","codes":["CC34","DT16"]},"geometry":{"type":"Point","coordinates":[103.85973,1.282535]}},{"type":"Feature","properties":{"name":"Bayshore","name_zh":"碧湾","name_ta":"பேஷோர்","codes":["TE29"]},"geometry":{"type":"Point","coordinates":[103.942308,1.313123]}},{"type":"Feature","properties":{"name":"Beauty World","name_zh":"美世界","name_ta":"பியூட்டி வோர்ல்ட்","codes":["DT5"]},"geometry":{"type":"Point","coordinates":[103.775936,1.341664]}},{"type":"Feature","properties":{"name":"Bedok","name_zh":"勿洛","name_ta":"பிடோக்","codes":["EW5"]},"geometry":{"type":"Point","coordinates":[103.929995,1.323935]}},{"type":"Feature","properties":{"name":"Bedok North","name_zh":"勿洛北","name_ta":"பிடோக் நார்த்","codes":["DT29"]},"geometry":{"type":"Point","coordinates":[103.918036,1.33475]}},{"type":"Feature","properties":{"name":"Bedok Reservoir","name_zh":"勿洛蓄水池","name_ta":"பிடோக் ரெசவோர்","codes":["DT30"]},"geometry":{"type":"Point","coordinates":[103.931887,1.336284]}},{"type":"Feature","properties":{"name":"Bencoolen","name_zh":"明古连","name_ta":"பென்கூலன்","codes":["DT21"]},"geometry":{"type":"Point","coordinates":[103.850369,1.298861]}},{"type":"Feature","properties":{"name":"Bendemeer","name_zh":"明地迷亚","name_ta":"பெண்டிமியர்","codes":["DT23"]},"geometry":{"type":"Point","coordinates":[103.863067,1.313583]}},{"type":"Feature","properties":{"name":"Bishan","name_zh":"碧山","name_ta":"பீஷான்","codes":["NS17","CC15"]},"geometry":{"type":"Point","coordinates":[103.848263,1.351455]}},{"type":"Feature","properties":{"name":"Boon Keng","name_zh":"文庆","name_ta":"பூன் கெங்","codes":["NE9"]},"geometry":{"type":"Point","coordinates":[103.861521,1.319824]}},{"type":"Feature","properties":{"name":"Boon Lay","name_zh":"文礼","name_ta":"பூன் லே","codes":["EW27"]},"geometry":{"type":"Point","coordinates":[103.705777,1.338472]}},{"type":"Feature","properties":{"name":"Botanic Gardens","name_zh":"植物园","name_ta":"பூ மலை","codes":["CC19","DT9"]},"geometry":{"type":"Point","coordinates":[103.815747,1.322559]}},{"type":"Feature","properties":{"name":"Braddell","name_zh":"布莱德","name_ta":"பிரேடல்","codes":["NS18"]},"geometry":{"type":"Point","coordinates":[103.846788,1.340599]}},{"type":"Feature","properties":{"name":"Bras Basah","name_zh":"百胜","name_ta":"பிராஸ் பாசா","codes":["CC2"]},"geometry":{"type":"Point","coordinates":[103.85055,1.296896]}},{"type":"Feature","properties":{"name":"Bright Hill","name_zh":"光明山","name_ta":"பிரைட் ஹில்","codes":["TE7"]},"geometry":{"type":"Point","coordinates":[103.832836,1.363449]}},{"type":"Feature","properties":{"name":"Buangkok","name_zh":"万国","name_ta":"புவாங்கோக்","codes":["NE15"]},"geometry":{"type":"Point","coordinates":[103.89305,1.383056]}},{"type":"Feature","properties":{"name":"Bugis","name_zh":"武吉士","name_ta":"பூகிஸ்","codes":["EW12","DT14"]},"geometry":{"type":"Point","coordinates":[103.856095,1.30053]}},{"type":"Feature","properties":{"name":"Bukit Batok","name_zh":"武吉巴督","name_ta":"புக்கிட் பாத்தோக்","codes":["NS2"]},"geometry":{"type":"Point","coordinates":[103.749591,1.349057]}},{"type":"Feature","properties":{"name":"Bukit Gombak","name_zh":"武吉甘柏","name_ta":"புக்கிட் கோம்பாக்","codes":["NS3"]},"geometry":{"type":"Point","coordinates":[103.751825,1.358893]}},{"type":"Feature","properties":{"name":"Bukit Panjang","name_zh":"武吉班让","name_ta":"புக்கிட் பாஞ்சாங்","codes":["DT1","BP6"]},"geometry":{"type":"Point","coordinates":[103.762138,1.378296]}},{"type":"Feature","properties":{"name":"Buona Vista","name_zh":"波那维斯达","name_ta":"புவன விஸ்தா","codes":["EW21","CC22"]},"geometry":{"type":"Point","coordinates":[103.790705,1.307263]}},{"type":"Feature","properties":{"name":"Caldecott","name_zh":"加利谷","name_ta":"கால்டிகாட்","codes":["CC17","TE9"]},"geometry":{"type":"Point","coordinates":[103.839991,1.33768]}},{"type":"Feature","properties":{"name":"Canberra","name_zh":"坎贝拉","name_ta":"கென்பரா","codes":["NS12"]},"geometry":{"type":"Point","coordinates":[103.829502,1.443369]}},{"type":"Feature","properties":{"name":"Cantonment","name_zh":"广东民","name_ta":"கெண்டொன்மன்","codes":["CC31"]},"geometry":{"type":"Point","coordinates":[103.837028,1.273115]}},{"type":"Feature","properties":{"name":"Cashew","name_zh":"凯秀","name_ta":"கேஷ்யூ","codes":["DT2"]},"geometry":{"type":"Point","coordinates":[103.764481,1.369661]}},{"type":"Feature","properties":{"name":"Changi Airport","name_zh":"樟宜机场","name_ta":"சாங்கி விமானநிலையம்","codes":["CG2"]},"geometry":{"type":"Point","coordinates":[103.988565,1.357338]}},{"type":"Feature","properties":{"name":"Cheng Lim","name_zh":"振林","name_ta":"செங் லிம்","codes":["SW1"]},"geometry":{"type":"Point","coordinates":[103.893713,1.39631]}},{"type":"Feature","properties":{"name":"Chinatown","name_zh":"牛车水","name_ta":"சைனாடவுன்","codes":["NE4","DT19"]},"geometry":{"type":"Point","coordinates":[103.844003,1.28502]}},{"type":"Feature","properties":{"name":"Chinese Garden","name_zh":"裕华园","name_ta":"சீனத் தோட்டம்","codes":["EW25"]},"geometry":{"type":"Point","coordinates":[103.732594,1.34247]}},{"type":"Feature","properties":{"name":"Choa Chu Kang","name_zh":"蔡厝港","name_ta":"சுவா சூ காங்","codes":["NS4","BP1"]},"geometry":{"type":"Point","coordinates":[103.744534,1.384749]}},{"type":"Feature","properties":{"name":"City Hall","name_zh":"政府大厦","name_ta":"நகர மண்டபம்","codes":["NS25","EW13"]},"geometry":{"type":"Point","coordinates":[103.851835,1.293214]}},{"type":"Feature","properties":{"name":"Clarke Quay","name_zh":"克拉码头","name_ta":"கிளார்க் கீ","codes":["NE5"]},"geometry":{"type":"Point","coordinates":[103.846869,1.288981]}},{"type":"Feature","properties":{"name":"Clementi","name_zh":"金文泰","name_ta":"கிளிமெண்டி","codes":["EW23"]},"geometry":{"type":"Point","coordinates":[103.765231,1.3151]}},{"type":"Feature","properties":{"name":"Commonwealth","name_zh":"联邦","name_ta":"காமன்வெல்த்","codes":["EW20"]},"geometry":{"type":"Point","coordinates":[103.798308,1.302443]}},{"type":"Feature","properties":{"name":"Compassvale","name_zh":"康埔桦","name_ta":"கம்பஸ்வேல்","codes":["SE1"]},"geometry":{"type":"Point","coordinates":[103.900435,1.394518]}},{"type":"Feature","properties":{"name":"Coral Edge","name_zh":"珊瑚","name_ta":"கோரல் எட்ஜ்","codes":["PE3"]},"geometry":{"type":"Point","coordinates":[103.912643,1.393876]}},{"type":"Feature","properties":{"name":"Cove","name_zh":"海湾","name_ta":"கோவ்","codes":["PE1"]},"geometry":{"type":"Point","coordinates":[103.905852,1.399464]}},{"type":"Feature","properties":{"name":"Dakota","name_zh":"达科达","name_ta":"டகோட்டா","codes":["CC8"]},"geometry":{"type":"Point","coordinates":[103.88832,1.308438]}},{"type":"Feature","properties":{"name":"Damai","name_zh":"达迈","name_ta":"டாமாய்","codes":["PE7"]},"geometry":{"type":"Point","coordinates":[103.908556,1.405282]}},{"type":"Feature","properties":{"name":"Dhoby Ghaut","name_zh":"多美歌","name_ta":"தோபி காட்","codes":["NS24","NE6","CC1"]},"geometry":{"type":"Point","coordinates":[103.84502,1.298786]}},{"type":"Feature","properties":{"name":"Dover","name_zh":"杜弗","name_ta":"டோவெர்","codes":["EW22"]},"geometry":{"type":"Point","coordinates":[103.778628,1.311421]}},{"type":"Feature","properties":{"name":"Downtown","name_zh":"市中心","name_ta":"டௌன்டவுன்","codes":["DT17"]},"geometry":{"type":"Point","coordinates":[103.853345,1.279191]}},{"type":"Feature","properties":{"name":"Esplanade","name_zh":"滨海中心","name_ta":"எஸ்பிளனேட்","codes":["CC3"]},"geometry":{"type":"Point","coordinates":[103.855974,1.293258]}},{"type":"Feature","properties":{"name":"Eunos","name_zh":"友诺士","name_ta":"யூனுஸ்","codes":["EW7"]},"geometry":{"type":"Point","coordinates":[103.903058,1.319814]}},{"type":"Feature","properties":{"name":"Expo","name_zh":"博覽","name_ta":"எக்ஸ்போ","codes":["DT35","CG1"]},"geometry":{"type":"Point","coordinates":[103.962238,1.33564]}},{"type":"Feature","properties":{"name":"Fajar","name_zh":"法嘉","name_ta":"ஃபஜார்","codes":["BP10"]},"geometry":{"type":"Point","coordinates":[103.7708,1.38455]}},{"type":"Feature","properties":{"name":"Farmway","name_zh":"农道","name_ta":"ஃபாம்வே","codes":["SW2"]},"geometry":{"type":"Point","coordinates":[103.889167,1.397191]}},{"type":"Feature","properties":{"name":"Farrer Park","name_zh":"花拉公园","name_ta":"ஃபேரர் பார்க்","codes":["NE8"]},"geometry":{"type":"Point","coordinates":[103.854377,1.312708]}},{"type":"Feature","properties":{"name":"Farrer Road","name_zh":"花拉路","name_ta":"ஃபேரர் சாலை","codes":["CC20"]},"geometry":{"type":"Point","coordinates":[103.807785,1.317628]}},{"type":"Feature","properties":{"name":"Fernvale","name_zh":"芬微","name_ta":"ஃபொ்ன்வேல்","codes":["SW5"]},"geometry":{"type":"Point","coordinates":[103.876297,1.391916]}},{"type":"Feature","properties":{"name":"Fort Canning","name_zh":"福康宁","name_ta":"ஃபோர்ட் கெனிங்","codes":["DT20"]},"geometry":{"type":"Point","coordinates":[103.844157,1.292393]}},{"type":"Feature","properties":{"name":"Gardens by the Bay","name_zh":"滨海湾花园","name_ta":"கரையோரப் பூந்தோட்டங்கள்","codes":["TE22"]},"geometry":{"type":"Point","coordinates":[103.868124,1.279451]}},{"type":"Feature","properties":{"name":"Geylang Bahru","name_zh":"芽笼峇鲁","name_ta":"கேலாங் பாரு","codes":["DT24"]},"geometry":{"type":"Point","coordinates":[103.871983,1.321611]}},{"type":"Feature","properties":{"name":"Great World","name_zh":"大世界","name_ta":"கிரேட் வோர்ல்ட்","codes":["TE15"]},"geometry":{"type":"Point","coordinates":[103.833483,1.294625]}},{"type":"Feature","properties":{"name":"Gul Circle","name_zh":"卡尔圈","name_ta":"கல் சர்க்கல்","codes":["EW30"]},"geometry":{"type":"Point","coordinates":[103.660415,1.319423]}},{"type":"Feature","properties":{"name":"HarbourFront","name_zh":"港湾","name_ta":"ஹார்பர்ஃபிரண்ட்","codes":["NE1","CC29"]},"geometry":{"type":"Point","coordinates":[103.822403,1.265391]}},{"type":"Feature","properties":{"name":"Havelock","name_zh":"合乐","name_ta":"ஹவ்லாக்","codes":["TE16"]},"geometry":{"type":"Point","coordinates":[103.833707,1.28749]}},{"type":"Feature","properties":{"name":"Haw Par Villa","name_zh":"虎豹别墅","name_ta":"ஹா பர் வில்லா","codes":["CC25"]},"geometry":{"type":"Point","coordinates":[103.781772,1.282654]}},{"type":"Feature","properties":{"name":"Hillview","name_zh":"山景","name_ta":"ஹில்வியூ","codes":["DT3"]},"geometry":{"type":"Point","coordinates":[103.767067,1.362451]}},{"type":"Feature","properties":{"name":"Holland Village","name_zh":"荷兰村","name_ta":"ஹாலந்து வில்லேஜ்","codes":["CC21"]},"geometry":{"type":"Point","coordinates":[103.795744,1.312117]}},{"type":"Feature","properties":{"name":"Hougang","name_zh":"后港","name_ta":"ஹவ்காங்","codes":["NE14"]},"geometry":{"type":"Point","coordinates":[103.892754,1.371904]}},{"type":"Feature","properties":{"name":"Hume","name_zh":"谦道","name_ta":"ஹியூம்","codes":["DT4"]},"geometry":{"type":"Point","coordinates":[103.769212,1.354339]}},{"type":"Feature","properties":{"name":"Jalan Besar","name_zh":"惹兰勿刹","name_ta":"ஜாலான் புசார்","codes":["DT22"]},"geometry":{"type":"Point","coordinates":[103.85523,1.305125]}},{"type":"Feature","properties":{"name":"Jelapang","name_zh":"泽拉邦","name_ta":"ஜெலப்பாங்","codes":["BP12"]},"geometry":{"type":"Point","coordinates":[103.764515,1.386683]}},{"type":"Feature","properties":{"name":"Joo Koon","name_zh":"裕群","name_ta":"ஜூ கூன்","codes":["EW29"]},"geometry":{"type":"Point","coordinates":[103.678285,1.32772]}},{"type":"Feature","properties":{"name":"Jurong East","name_zh":"裕廊东","name_ta":"ஜூரோங் கிழக்கு","codes":["NS1","EW24"]},"geometry":{"type":"Point","coordinates":[103.742297,1.333115]}},{"type":"Feature","properties":{"name":"Kadaloor","name_zh":"卡达鲁","name_ta":"கடலூர்","codes":["PE5"]},"geometry":{"type":"Point","coordinates":[103.916445,1.399601]}},{"type":"Feature","properties":{"name":"Kaki Bukit ","name_zh":"加基武吉","name_ta":"காக்கி புக்கிட்","codes":["DT28"]},"geometry":{"type":"Point","coordinates":[103.908611,1.335024]}},{"type":"Feature","properties":{"name":"Kallang","name_zh":"加冷","name_ta":"காலாங்","codes":["EW10"]},"geometry":{"type":"Point","coordinates":[103.871339,1.311448]}},{"type":"Feature","properties":{"name":"Kangkar","name_zh":"港脚","name_ta":"கங்கார்","codes":["SE4"]},"geometry":{"type":"Point","coordinates":[103.902202,1.383922]}},{"type":"Feature","properties":{"name":"Katong Park","name_zh":"加东公园","name_ta":"காத்தோங் பார்க்","codes":["TE24"]},"geometry":{"type":"Point","coordinates":[103.886179,1.297832]}},{"type":"Feature","properties":{"name":"Keat Hong","name_zh":"吉丰","name_ta":"கியட் ஹோங்","codes":["BP3"]},"geometry":{"type":"Point","coordinates":[103.74903,1.378599]}},{"type":"Feature","properties":{"name":"Kembangan","name_zh":"景万岸","name_ta":"கெம்பாங்கான்","codes":["EW6"]},"geometry":{"type":"Point","coordinates":[103.912762,1.321055]}},{"type":"Feature","properties":{"name":"Kent Ridge","name_zh":"肯特岗","name_ta":"கெண்ட் ரிஜ்","codes":["CC24"]},"geometry":{"type":"Point","coordinates":[103.784413,1.293301]}},{"type":"Feature","properties":{"name":"Keppel","name_zh":"吉宝","name_ta":"கெப்பல்","codes":["CC30"]},"geometry":{"type":"Point","coordinates":[103.830693,1.27043]}},{"type":"Feature","properties":{"name":"Khatib","name_zh":"卡迪","name_ta":"காதிப்","codes":["NS14"]},"geometry":{"type":"Point","coordinates":[103.832998,1.417316]}},{"type":"Feature","properties":{"name":"King Albert Park","name_zh":"阿尔柏王园","name_ta":"கிங் ஆல்பர்ட் பார்க்","codes":["DT6"]},"geometry":{"type":"Point","coordinates":[103.78416,1.33566]}},{"type":"Feature","properties":{"name":"Kovan","name_zh":"高文","name_ta":"கோவன்","codes":["NE13"]},"geometry":{"type":"Point","coordinates":[103.884874,1.359977]}},{"type":"Feature","properties":{"name":"Kranji","name_zh":"克兰芝","name_ta":"கிராஞ்சி","codes":["NS7"]},"geometry":{"type":"Point","coordinates":[103.761989,1.425219]}},{"type":"Feature","properties":{"name":"Kupang","name_zh":"古邦","name_ta":"கூப்பாங்","codes":["SW3"]},"geometry":{"type":"Point","coordinates":[103.881244,1.398204]}},{"type":"Feature","properties":{"name":"Labrador Park","name_zh":"拉柏多公园","name_ta":"லாப்ரடார் பூங்கா","codes":["CC27"]},"geometry":{"type":"Point","coordinates":[103.802782,1.272328]}},{"type":"Feature","properties":{"name":"Lakeside","name_zh":"湖畔","name_ta":"ஏரிக்கரை","codes":["EW26"]},"geometry":{"type":"Point","coordinates":[103.720801,1.344303]}},{"type":"Feature","properties":{"name":"Lavender","name_zh":"劳明达","name_ta":"லவண்டர்","codes":["EW11"]},"geometry":{"type":"Point","coordinates":[103.86303,1.307445]}},{"type":"Feature","properties":{"name":"Layar","name_zh":"拉雅","name_ta":"லாயார்","codes":["SW6"]},"geometry":{"type":"Point","coordinates":[103.880074,1.392114]}},{"type":"Feature","properties":{"name":"Lentor","name_zh":"伦多","name_ta":"லென்ட்டோர்","codes":["TE5"]},"geometry":{"type":"Point","coordinates":[103.836626,1.384738]}},{"type":"Feature","properties":{"name":"Little India","name_zh":"小印度","name_ta":"லிட்டில் இந்தியா","codes":["NE7","DT12"]},"geometry":{"type":"Point","coordinates":[103.849299,1.306571]}},{"type":"Feature","properties":{"name":"Lorong Chuan","name_zh":"罗弄泉","name_ta":"லோரோங் சுவான்","codes":["CC14"]},"geometry":{"type":"Point","coordinates":[103.863395,1.351488]}},{"type":"Feature","properties":{"name":"MacPherson","name_zh":"麦波申","name_ta":"மெக்பர்சன்","codes":["CC10","DT26"]},"geometry":{"type":"Point","coordinates":[103.890102,1.326728]}},{"type":"Feature","properties":{"name":"Marina Bay","name_zh":"滨海湾","name_ta":"மரீனா பே","codes":["NS27","CC33","TE20"]},"geometry":{"type":"Point","coordinates":[103.854751,1.275171]}},{"type":"Feature","properties":{"name":"Marina South Pier","name_zh":"滨海南码头","name_ta":"மரினா சவுத் பியர்","codes":["NS28"]},"geometry":{"type":"Point","coordinates":[103.862723,1.27175]}},{"type":"Feature","properties":{"name":"Marine Parade","name_zh":"马林百列","name_ta":"மரீன் பரேட்","codes":["TE26"]},"geometry":{"type":"Point","coordinates":[103.904983,1.302612]}},{"type":"Feature","properties":{"name":"Marine Terrace","name_zh":"马林台","name_ta":"மரீன் டெரஸ்","codes":["TE27"]},"geometry":{"type":"Point","coordinates":[103.915107,1.306665]}},{"type":"Feature","properties":{"name":"Marsiling","name_zh":"马西岭","name_ta":"மார்சிலிங்","codes":["NS8"]},"geometry":{"type":"Point","coordinates":[103.774216,1.432542]}},{"type":"Feature","properties":{"name":"Marymount","name_zh":"玛丽蒙","name_ta":"மேரிமவுண்ட்","codes":["CC16"]},"geometry":{"type":"Point","coordinates":[103.839238,1.348614]}},{"type":"Feature","properties":{"name":"Mattar","name_zh":"玛达","name_ta":"மாத்தார்","codes":["DT25"]},"geometry":{"type":"Point","coordinates":[103.882958,1.326969]}},{"type":"Feature","properties":{"name":"Maxwell","name_zh":"麦士威","name_ta":"மெச்ஸ்வெல்","codes":["TE18"]},"geometry":{"type":"Point","coordinates":[103.844008,1.280685]}},{"type":"Feature","properties":{"name":"Mayflower","name_zh":"美华","name_ta":"மேஃபிளவர்","codes":["TE6"]},"geometry":{"type":"Point","coordinates":[103.836789,1.372151]}},{"type":"Feature","properties":{"name":"Meridian","name_zh":"丽园","name_ta":"மெரிடியன்","codes":["PE2"]},"geometry":{"type":"Point","coordinates":[103.908874,1.396976]}},{"type":"Feature","properties":{"name":"Mountbatten","name_zh":"蒙巴登","name_ta":"மவுண்ட்பேட்டன்","codes":["CC7"]},"geometry":{"type":"Point","coordinates":[103.882496,1.306249]}},{"type":"Feature","properties":{"name":"Napier","name_zh":"纳比雅","name_ta":"நேப்பியர்","codes":["TE12"]},"geometry":{"type":"Point","coordinates":[103.819006,1.307087]}},{"type":"Feature","properties":{"name":"Newton","name_zh":"纽顿","name_ta":"நியூட்டன்","codes":["NS21","DT11"]},"geometry":{"type":"Point","coordinates":[103.838864,1.31296]}},{"type":"Feature","properties":{"name":"Nibong","name_zh":"尼蒙","name_ta":"நிபொங்","codes":["PW5"]},"geometry":{"type":"Point","coordinates":[103.900305,1.411831]}},{"type":"Feature","properties":{"name":"Nicoll Highway","name_zh":"尼诰大道","name_ta":"நிக்கல் நெடுஞ்சாலை","codes":["CC5"]},"geometry":{"type":"Point","coordinates":[103.8635,1.299671]}},{"type":"Feature","properties":{"name":"Novena","name_zh":"诺维娜","name_ta":"நொவீனா","codes":["NS20"]},"geometry":{"type":"Point","coordinates":[103.843492,1.320084]}},{"type":"Feature","properties":{"name":"Oasis","name_zh":"绿洲","name_ta":"ஓய்சிஸ்","codes":["PE6"]},"geometry":{"type":"Point","coordinates":[103.912684,1.402317]}},{"type":"Feature","properties":{"name":"one-north","name_zh":"纬壹","name_ta":"ஒன்-நார்த்","codes":["CC23"]},"geometry":{"type":"Point","coordinates":[103.787241,1.299607]}},{"type":"Feature","properties":{"name":"Orchard","name_zh":"乌节","name_ta":"ஆர்ச்சர்ட்","codes":["NS22","TE14"]},"geometry":{"type":"Point","coordinates":[103.831982,1.303223]}},{"type":"Feature","properties":{"name":"Orchard Boulevard","name_zh":"乌节大道","name_ta":"ஆர்ச்சர்ட் பொலிவார்ட்","codes":["TE13"]},"geometry":{"type":"Point","coordinates":[103.824014,1.302406]}},{"type":"Feature","properties":{"name":"Outram Park","name_zh":"欧南园","name_ta":"ஊட்ரம் பார்க்","codes":["EW16","NE3","TE17"]},"geometry":{"type":"Point","coordinates":[103.840241,1.280685]}},{"type":"Feature","properties":{"name":"Pasir Panjang","name_zh":"巴西班让","name_ta":"பாசிர் பாஞ்சாங்","codes":["CC26"]},"geometry":{"type":"Point","coordinates":[103.791614,1.276177]}},{"type":"Feature","properties":{"name":"Pasir Ris","name_zh":"巴西立","name_ta":"பாசிர் ரிஸ்","codes":["EW1"]},"geometry":{"type":"Point","coordinates":[103.949255,1.373031]}},{"type":"Feature","properties":{"name":"Paya Lebar","name_zh":"巴耶利峇","name_ta":"பாய லேபார்","codes":["EW8","CC9"]},"geometry":{"type":"Point","coordinates":[103.892318,1.31805]}},{"type":"Feature","properties":{"name":"Pending","name_zh":"秉定","name_ta":"பெண்டிங்","codes":["BP8"]},"geometry":{"type":"Point","coordinates":[103.771259,1.376184]}},{"type":"Feature","properties":{"name":"Petir","name_zh":"柏提","name_ta":"பெட்டீர்","codes":["BP7"]},"geometry":{"type":"Point","coordinates":[103.766634,1.377756]}},{"type":"Feature","properties":{"name":"Phoenix","name_zh":"凤凰","name_ta":"ஃபீனிக்ஸ்","codes":["BP5"]},"geometry":{"type":"Point","coordinates":[103.758008,1.378616]}},{"type":"Feature","properties":{"name":"Pioneer","name_zh":"先驱","name_ta":"பயனியர்","codes":["EW28"]},"geometry":{"type":"Point","coordinates":[103.697354,1.337575]}},{"type":"Feature","properties":{"name":"Potong Pasir","name_zh":"波东巴西","name_ta":"போத்தோங் பாசிர்","codes":["NE10"]},"geometry":{"type":"Point","coordinates":[103.869093,1.331254]}},{"type":"Feature","properties":{"name":"Prince Edward Road","name_zh":"爱德华太子路","name_ta":"பிரின்ஸ் எட்வர்ட் ரோடு","codes":["CC32"]},"geometry":{"type":"Point","coordinates":[103.847408,1.273316]}},{"type":"Feature","properties":{"name":"Promenade","name_zh":"宝门廊","name_ta":"புரொமனாட்","codes":["CC4","DT15"]},"geometry":{"type":"Point","coordinates":[103.860151,1.293854]}},{"type":"Feature","properties":{"name":"Punggol","name_zh":"榜鹅","name_ta":"பொங்கோல்","codes":["NE17","PTC"]},"geometry":{"type":"Point","coordinates":[103.902354,1.405255]}},{"type":"Feature","properties":{"name":"Punggol Coast","name_zh":"榜鹅海岸","name_ta":"பொங்கோல் கோஸ்ட்","codes":["NE18"]},"geometry":{"type":"Point","coordinates":[103.910329,1.415018]}},{"type":"Feature","properties":{"name":"Punggol Point","name_zh":"榜鹅坊","name_ta":"பொங்கோல் பாயிண்ட்","codes":["PW3"]},"geometry":{"type":"Point","coordinates":[103.906664,1.416845]}},{"type":"Feature","properties":{"name":"Queenstown","name_zh":"女皇镇","name_ta":"குவீன்ஸ்டவுன்","codes":["EW19"]},"geometry":{"type":"Point","coordinates":[103.806052,1.294552]}},{"type":"Feature","properties":{"name":"Raffles Place","name_zh":"莱佛士坊","name_ta":"ராஃபிள்ஸ் பிளேஸ்","codes":["NS26","EW14"]},"geometry":{"type":"Point","coordinates":[103.85147,1.284409]}},{"type":"Feature","properties":{"name":"Ranggung","name_zh":"兰岗","name_ta":"ரங்கோங்","codes":["SE5"]},"geometry":{"type":"Point","coordinates":[103.897349,1.38403]}},{"type":"Feature","properties":{"name":"Redhill","name_zh":"红山","name_ta":"ரெட்ஹில்","codes":["EW18"]},"geometry":{"type":"Point","coordinates":[103.816757,1.289653]}},{"type":"Feature","properties":{"name":"Renjong","name_zh":"仁宗","name_ta":"ரெஞ்சோங்","codes":["SW8"]},"geometry":{"type":"Point","coordinates":[103.890485,1.386708]}},{"type":"Feature","properties":{"name":"Riviera","name_zh":"里维拉","name_ta":"ரிவியாரா","codes":["PE4"]},"geometry":{"type":"Point","coordinates":[103.916135,1.394581]}},{"type":"Feature","properties":{"name":"Rochor","name_zh":"梧槽","name_ta":"ரோச்சோர்","codes":["DT13"]},"geometry":{"type":"Point","coordinates":[103.852634,1.303951]}},{"type":"Feature","properties":{"name":"Rumbia","name_zh":"棕美","name_ta":"ரூம்பியா","codes":["SE2"]},"geometry":{"type":"Point","coordinates":[103.905937,1.391509]}},{"type":"Feature","properties":{"name":"Sam Kee","name_zh":"三记","name_ta":"சாம் கீ","codes":["PW1"]},"geometry":{"type":"Point","coordinates":[103.904583,1.40975]}},{"type":"Feature","properties":{"name":"Samudera","name_zh":"山姆","name_ta":"சமுத்திரா","codes":["PW4"]},"geometry":{"type":"Point","coordinates":[103.90219,1.415976]}},{"type":"Feature","properties":{"name":"Segar","name_zh":"实加","name_ta":"செகார்","codes":["BP11"]},"geometry":{"type":"Point","coordinates":[103.769593,1.387792]}},{"type":"Feature","properties":{"name":"Sembawang","name_zh":"三巴旺","name_ta":"செம்பாவாங்","codes":["NS11"]},"geometry":{"type":"Point","coordinates":[103.820056,1.449093]}},{"type":"Feature","properties":{"name":"Sengkang","name_zh":"盛港","name_ta":"செங்காங்","codes":["NE16","STC"]},"geometry":{"type":"Point","coordinates":[103.895294,1.39133]}},{"type":"Feature","properties":{"name":"Senja","name_zh":"信佳","name_ta":"சென்ஜா","codes":["BP13"]},"geometry":{"type":"Point","coordinates":[103.762382,1.382678]}},{"type":"Feature","properties":{"name":"Serangoon","name_zh":"实龙岗","name_ta":"சிராங்கூன்","codes":["NE12","CC13"]},"geometry":{"type":"Point","coordinates":[103.873771,1.349807]}},{"type":"Feature","properties":{"name":"Shenton Way","name_zh":"珊顿道","name_ta":"ஷென்ட்டன் வே","codes":["TE19"]},"geometry":{"type":"Point","coordinates":[103.850548,1.277661]}},{"type":"Feature","properties":{"name":"Siglap","name_zh":"实乞纳","name_ta":"சிக்லாப்","codes":["TE28"]},"geometry":{"type":"Point","coordinates":[103.930026,1.310009]}},{"type":"Feature","properties":{"name":"Simei","name_zh":"四美","name_ta":"ஸீமெய்","codes":["EW3"]},"geometry":{"type":"Point","coordinates":[103.953376,1.343179]}},{"type":"Feature","properties":{"name":"Sixth Avenue","name_zh":"第六道","name_ta":"சிக்ஸ்த் அவென்யூ","codes":["DT7"]},"geometry":{"type":"Point","coordinates":[103.797225,1.330591]}},{"type":"Feature","properties":{"name":"Somerset","name_zh":"索美塞","name_ta":"சாமர்செட்","codes":["NS23"]},"geometry":{"type":"Point","coordinates":[103.838504,1.300328]}},{"type":"Feature","properties":{"name":"Soo Teck","name_zh":"树德","name_ta":"சூ டெக்","codes":["PW7"]},"geometry":{"type":"Point","coordinates":[103.897237,1.405394]}},{"type":"Feature","properties":{"name":"South View","name_zh":"南景","name_ta":"சவுத் வியூ","codes":["BP2"]},"geometry":{"type":"Point","coordinates":[103.745285,1.38026]}},{"type":"Feature","properties":{"name":"Springleaf","name_zh":"春叶","name_ta":"ஸ்பிரிங்லீஃவ்","codes":["TE4"]},"geometry":{"type":"Point","coordinates":[103.817932,1.397771]}},{"type":"Feature","properties":{"name":"Stadium","name_zh":"体育场","name_ta":"ஸ்டேடியம்","codes":["CC6"]},"geometry":{"type":"Point","coordinates":[103.87539,1.302946]}},{"type":"Feature","properties":{"name":"Stevens","name_zh":"史蒂芬","name_ta":"ஸ்டீவன்ஸ்","codes":["DT10","TE11"]},"geometry":{"type":"Point","coordinates":[103.825461,1.320192]}},{"type":"Feature","properties":{"name":"Sumang","name_zh":"苏芒","name_ta":"சுமாங்","codes":["PW6"]},"geometry":{"type":"Point","coordinates":[103.898534,1.408532]}},{"type":"Feature","properties":{"name":"Tai Seng","name_zh":"大成","name_ta":"தை செங்","codes":["CC11"]},"geometry":{"type":"Point","coordinates":[103.88815,1.334866]}},{"type":"Feature","properties":{"name":"Tampines","name_zh":"淡滨尼","name_ta":"தெம்பனிஸ்","codes":["EW2","DT32"]},"geometry":{"type":"Point","coordinates":[103.945084,1.353374]}},{"type":"Feature","properties":{"name":"Tampines East","name_zh":"淡滨尼东","name_ta":"தெம்பினிஸ் ஈஸ்ட்","codes":["DT33"]},"geometry":{"type":"Point","coordinates":[103.954976,1.356084]}},{"type":"Feature","properties":{"name":"Tampines West","name_zh":"淡滨尼西","name_ta":"தெம்பினிஸ் வெஸ்ட்","codes":["DT31"]},"geometry":{"type":"Point","coordinates":[103.93856,1.345519]}},{"type":"Feature","properties":{"name":"Tan Kah Kee","name_zh":"陈嘉庚","name_ta":"டான் கா கீ","codes":["DT8"]},"geometry":{"type":"Point","coordinates":[103.807753,1.325701]}},{"type":"Feature","properties":{"name":"Tanah Merah","name_zh":"丹那美拉","name_ta":"தானா மேரா","codes":["EW4","CG"]},"geometry":{"type":"Point","coordinates":[103.946513,1.327262]}},{"type":"Feature","properties":{"name":"Tanjong Katong","name_zh":"丹戎加东","name_ta":"தஞ்சோங் காத்தோங்","codes":["TE25"]},"geometry":{"type":"Point","coordinates":[103.897369,1.299319]}},{"type":"Feature","properties":{"name":"Tanjong Pagar","name_zh":"丹戎巴葛","name_ta":"தஞ்சோங் பகார்","codes":["EW15"]},"geometry":{"type":"Point","coordinates":[103.845884,1.276574]}},{"type":"Feature","properties":{"name":"Tanjong Rhu","name_zh":"丹戎禺","name_ta":"தஞ்சோங் ரூ","codes":["TE23"]},"geometry":{"type":"Point","coordinates":[103.873453,1.297265]}},{"type":"Feature","properties":{"name":"Teck Lee","name_zh":"德利","name_ta":"டெக் லீ","codes":["PW2"]},"geometry":{"type":"Point","coordinates":[103.906653,1.412705]}},{"type":"Feature","properties":{"name":"Teck Whye","name_zh":"德惠","name_ta":"டெக் வாய்","codes":["BP4"]},"geometry":{"type":"Point","coordinates":[103.753647,1.37667]}},{"type":"Feature","properties":{"name":"Telok Ayer","name_zh":"直落亚逸","name_ta":"தெலுக் ஆயர்","codes":["DT18"]},"geometry":{"type":"Point","coordinates":[103.848744,1.282123]}},{"type":"Feature","properties":{"name":"Telok Blangah","name_zh":"直落布兰雅","name_ta":"தெலுக் பிளாங்கா","codes":["CC28"]},"geometry":{"type":"Point","coordinates":[103.809863,1.270586]}},{"type":"Feature","properties":{"name":"Thanggam","name_zh":"丹甘","name_ta":"தங்கம்","codes":["SW4"]},"geometry":{"type":"Point","coordinates":[103.875645,1.397434]}},{"type":"Feature","properties":{"name":"Tiong Bahru","name_zh":"中峇鲁","name_ta":"தியோங் பாரு","codes":["EW17"]},"geometry":{"type":"Point","coordinates":[103.827642,1.286095]}},{"type":"Feature","properties":{"name":"Toa Payoh","name_zh":"大巴窑","name_ta":"தோ பாயோ","codes":["NS19"]},"geometry":{"type":"Point","coordinates":[103.847327,1.332297]}},{"type":"Feature","properties":{"name":"Tongkang","name_zh":"同港","name_ta":"தொங்காங்","codes":["SW7"]},"geometry":{"type":"Point","coordinates":[103.885807,1.389445]}},{"type":"Feature","properties":{"name":"Tuas Crescent","name_zh":"大士弯","name_ta":"துவாஸ் கிரசண்ட்","codes":["EW31"]},"geometry":{"type":"Point","coordinates":[103.649575,1.320811]}},{"type":"Feature","properties":{"name":"Tuas Link","name_zh":"大士连路","name_ta":"துவாஸ் லிங்க்","codes":["EW33"]},"geometry":{"type":"Point","coordinates":[103.636961,1.340429]}},{"type":"Feature","properties":{"name":"Tuas West Road","name_zh":"大士西路","name_ta":"துவாஸ் வெஸ்ட் ரோடு","codes":["EW32"]},"geometry":{"type":"Point","coordinates":[103.640149,1.329495]}},{"type":"Feature","properties":{"name":"Ubi","name_zh":"乌美","name_ta":"உபி","codes":["DT27"]},"geometry":{"type":"Point","coordinates":[103.899379,1.329763]}},{"type":"Feature","properties":{"name":"Upper Changi","name_zh":"樟宜上段","name_ta":"அப்பர் சாங்கி","codes":["DT34"]},"geometry":{"type":"Point","coordinates":[103.961263,1.34169]}},{"type":"Feature","properties":{"name":"Upper Thomson","name_zh":"汤申路上段","name_ta":"அப்பர் தாம்சன்","codes":["TE8"]},"geometry":{"type":"Point","coordinates":[103.832819,1.354486]}},{"type":"Feature","properties":{"name":"Woodlands","name_zh":"兀兰","name_ta":"ஊட்லண்ட்ஸ்","codes":["NS9","TE2"]},"geometry":{"type":"Point","coordinates":[103.786961,1.43718]}},{"type":"Feature","properties":{"name":"Woodlands North","name_zh":"兀兰北","name_ta":"ஊட்லண்ட்ஸ் நார்த்","codes":["TE1"]},"geometry":{"type":"Point","coordinates":[103.785519,1.448646]}},{"type":"Feature","properties":{"name":"Woodlands South","name_zh":"兀兰南","name_ta":"ஊட்லண்ட்ஸ் சவுத்","codes":["TE3"]},"geometry":{"type":"Point","coordinates":[103.794295,1.427145]}},{"type":"Feature","properties":{"name":"Woodleigh","name_zh":"兀里","name_ta":"உட் லீ","codes":["NE11"]},"geometry":{"type":"Point","coordinates":[103.870754,1.339197]}},{"type":"Feature","properties":{"name":"Yew Tee","name_zh":"油池","name_ta":"இயூ டீ","codes":["NS5"]},"geometry":{"type":"Point","coordinates":[103.747401,1.397461]}},{"type":"Feature","properties":{"name":"Yio Chu Kang","name_zh":"杨厝港","name_ta":"இயோ சூ காங்","codes":["NS15"]},"geometry":{"type":"Point","coordinates":[103.844965,1.38178]}},{"type":"Feature","properties":{"name":"Yishun","name_zh":"义顺","name_ta":"யீஷூன்","codes":["NS13"]},"geometry":{"type":"Point","coordinates":[103.835028,1.429384]}}]}